{
  "norad_id": 51130,
  "name": "STARLINK-3395",
  "history": [
    {
      "epoch": "2026-03-28T18:09:53.429760Z",
      "apogee_km": 540.7475321643524,
      "perigee_km": 538.7326312855294,
      "latitude_deg": -2.659064773571105e-05,
      "longitude_deg": 114.88551682258509,
      "height_km": 540.0637762701919,
      "semi_major_axis_km": 6917.877081724941,
      "eccentricity": 0.00014563,
      "inclination_deg": 53.2176,
      "raan_deg": 213.5309,
      "arg_perigee_deg": 55.3865,
      "mean_anomaly_deg": 304.7264,
      "mean_motion_rev_day": 15.08841082
    }
  ]
}