{"fetched_at":"2026-03-30T06:02:59Z","count":15439,"tles":[{"name":"STARLINK-3395","line1":"1 51130U 22005AC  26087.75686840  .00000107  00000+0  24799-4 0  9998","line2":"2 51130  53.2176 213.5309 0001456  55.3865 304.7264 15.08841082231602","category":"Starlink"}]}